NORAD_CAT_ID,OBJECT_NAME,OBJECT_TYPE,EPOCH,MEAN_MOTION,ECCENTRICITY,INCLINATION,RA_OF_ASC_NODE,ARG_OF_PERICENTER,MEAN_ANOMALY,BSTAR,MEAN_MOTION_DOT,MEAN_MOTION_DDOT,TLE_LINE0,TLE_LINE1,TLE_LINE2,SEMIMAJOR_AXIS,PERIOD,APOGEE,PERIGEE,DECAYED
53432.0,STARLINK-4557,PAYLOAD,2024-07-07 14:17:13,15.08854624,0.0001273,53.2191,322.7081,81.5816,278.532,-0.0001302,-2.36e-05,0.0,0 STARLINK-4557,1 53432U 22097AW  24189.59529704 -.00002360  00000-0 -13020-3 0  9994,2 53432  53.2191 322.7081 0001273  81.5816 278.5320 15.08854624106686,6917.836,95.437,540.581,538.82,0.0
53432.0,STARLINK-4557,PAYLOAD,2024-07-07 19:03:23,15.08822025,0.0001541,53.2188,321.8093,100.6927,259.4238,0.00039821,6.052e-05,0.0,0 STARLINK-4557,1 53432U 22097AW  24189.79401934  .00006052  00000-0  39821-3 0  9997,2 53432  53.2188 321.8093 0001541 100.6927 259.4238 15.08822025106236,6917.935,95.439,540.866,538.734,0.0
53432.0,STARLINK-4557,PAYLOAD,2024-07-08 01:24:54,15.08860849,0.0001281,53.2188,320.6203,87.6151,272.4988,-0.00017372,-3.053e-05,0.0,0 STARLINK-4557,1 53432U 22097AW  24190.05896820 -.00003053  00000-0 -17372-3 0  9997,2 53432  53.2188 320.6203 0001281  87.6151 272.4988 15.08860849106277,6917.817,95.436,540.568,538.795,0.0
53432.0,STARLINK-4557,PAYLOAD,2024-07-08 12:32:38,15.08832082,0.0001511,53.2195,318.5447,93.894,266.2224,9.0766e-05,1.157e-05,0.0,0 STARLINK-4557,1 53432U 22097AW  24190.52266276  .00001157  00000-0  90766-4 0  9995,2 53432  53.2195 318.5447 0001511  93.8940 266.2224 15.08832082106342,6917.905,95.438,540.815,538.724,0.0
53432.0,STARLINK-4557,PAYLOAD,2024-07-08 14:08:01,15.08833688,0.0001538,53.2193,318.2472,94.2255,265.8913,0.00010569,1.394e-05,0.0,0 STARLINK-4557,1 53432U 22097AW  24190.58890190  .00001394  00000-0  10569-3 0  9994,2 53432  53.2193 318.2472 0001538  94.2255 265.8913 15.08833688106835,6917.9,95.438,540.829,538.701,0.0
53432.0,STARLINK-4557,PAYLOAD,2024-07-08 15:43:24,15.08836069,0.0001498,53.2193,317.9508,93.6155,266.5009,0.00012485,1.699e-05,0.0,0 STARLINK-4557,1 53432U 22097AW  24190.65514050  .00001699  00000-0  12485-3 0  9997,2 53432  53.2193 317.9508 0001498  93.6155 266.5009 15.08836069106849,6917.892,95.438,540.794,538.721,0.0
53432.0,STARLINK-4557,PAYLOAD,2024-07-09 13:58:47,15.08843575,0.0001537,53.2188,313.788,104.3024,255.8139,7.6233e-05,9.26e-06,0.0,0 STARLINK-4557,1 53432U 22097AW  24191.58249985  .00000926  00000-0  76233-4 0  9996,2 53432  53.2188 313.7880 0001537 104.3024 255.8139 15.08843575106989,6917.869,95.437,540.798,538.671,0.0
53432.0,STARLINK-4557,PAYLOAD,2024-07-09 17:09:33,15.08849159,0.0001614,53.2191,313.1919,119.4364,240.6789,9.191e-05,1.175e-05,0.0,0 STARLINK-4557,1 53432U 22097AW  24191.71497482  .00001175  00000-0  91910-4 0  9994,2 53432  53.2191 313.1919 0001614 119.4364 240.6789 15.08849159106527,6917.852,95.437,540.834,538.601,0.0
53432.0,STARLINK-4557,PAYLOAD,2024-07-10 01:06:30,15.08839472,0.0001478,53.2178,311.6993,76.5949,283.5208,2.8274e-06,-2.43e-06,0.0,0 STARLINK-4557,1 53432U 22097AW  24192.04618380 -.00000243  00000-0  28274-5 0  9993,2 53432  53.2178 311.6993 0001478  76.5949 283.5208 15.08839472106571,6917.882,95.438,540.769,538.725,0.0
53432.0,STARLINK-4557,PAYLOAD,2024-07-10 17:00:21,15.0883882,0.0001487,53.2174,308.7298,89.2212,270.8951,4.4018e-05,4.13e-06,0.0,0 STARLINK-4557,1 53432U 22097AW  24192.70858565  .00000413  00000-0  44018-4 0  9998,2 53432  53.2174 308.7298 0001487  89.2212 270.8951 15.08838820107151,6917.884,95.438,540.778,538.72,0.0
53432.0,STARLINK-4557,PAYLOAD,2024-07-11 13:40:22,15.0884623,0.0001285,53.2173,304.8643,87.0527,273.0612,5.796e-05,6.35e-06,0.0,0 STARLINK-4557,1 53432U 22097AW  24193.56970117  .00000635  00000-0  57960-4 0  9997,2 53432  53.2173 304.8643 0001285  87.0527 273.0612 15.08846230107289,6917.861,95.437,540.615,538.837,0.0
53432.0,STARLINK-4557,PAYLOAD,2024-07-12 13:31:09,15.08839627,0.0001329,53.2159,300.404,93.1761,266.9383,0.00010011,1.306e-05,0.0,0 STARLINK-4557,1 53432U 22097AW  24194.56330470  .00001306  00000-0  10011-3 0  9991,2 53432  53.2159 300.4040 0001329  93.1761 266.9383 15.08839627106954,6917.882,95.438,540.666,538.827,0.0
53432.0,STARLINK-4557,PAYLOAD,2024-07-13 13:21:56,15.08849084,0.0001327,53.2181,295.9421,92.188,267.9264,1.9307e-05,1.9e-07,0.0,0 STARLINK-4557,1 53432U 22097AW  24195.55690006  .00000019  00000-0  19307-4 0  9993,2 53432  53.2181 295.9421 0001327  92.1880 267.9264 15.08849084107586,6917.853,95.437,540.636,538.8,0.0
53432.0,STARLINK-4557,PAYLOAD,2024-07-14 13:12:43,15.08845888,0.0001194,53.2164,291.483,86.4506,273.6623,0.00013468,1.857e-05,0.0,0 STARLINK-4557,1 53432U 22097AW  24196.55049902  .00001857  00000-0  13468-3 0  9999,2 53432  53.2164 291.4830 0001194  86.4506 273.6623 15.08845888107250,6917.862,95.437,540.553,538.901,0.0
53432.0,STARLINK-4557,PAYLOAD,2024-07-15 13:03:30,15.08846777,0.0001247,53.2173,287.0228,86.8776,273.2359,0.00013814,1.912e-05,0.0,0 STARLINK-4557,1 53432U 22097AW  24197.54409884  .00001912  00000-0  13814-3 0  9995,2 53432  53.2173 287.0228 0001247  86.8776 273.2359 15.08846777107883,6917.86,95.437,540.587,538.862,0.0
53432.0,STARLINK-4557,PAYLOAD,2024-07-15 22:35:49,15.08841616,0.0001059,53.2151,285.2388,83.3936,276.7176,-5.1092e-06,-3.69e-06,0.0,0 STARLINK-4557,1 53432U 22097AW  24197.94154052 -.00000369  00000-0 -51092-5 0  9992,2 53432  53.2151 285.2388 0001059  83.3936 276.7176 15.08841616107946,6917.875,95.437,540.473,539.008,0.0
53432.0,STARLINK-4557,PAYLOAD,2024-07-16 11:18:54,15.08837679,0.0001365,53.2173,282.864,99.0229,261.0917,3.0821e-05,2.03e-06,0.0,0 STARLINK-4557,1 53432U 22097AW  24198.47146753  .00000203  00000-0  30821-4 0  9991,2 53432  53.2173 282.8640 0001365  99.0229 261.0917 15.08837679107543,6917.887,95.438,540.697,538.808,0.0
53432.0,STARLINK-4557,PAYLOAD,2024-07-17 12:45:05,15.08839229,0.0001031,53.2158,278.1032,101.5498,258.561,3.4832e-05,2.67e-06,0.0,0 STARLINK-4557,1 53432U 22097AW  24199.53131091  .00000267  00000-0  34832-4 0  9994,2 53432  53.2158 278.1032 0001031 101.5498 258.5610 15.08839229107708,6917.883,95.438,540.461,539.035,0.0
53432.0,STARLINK-4557,PAYLOAD,2024-07-18 12:35:51,15.08850362,0.0001257,53.2162,273.6413,88.1545,271.9591,0.00023819,3.506e-05,0.0,0 STARLINK-4557,1 53432U 22097AW  24200.52490740  .00003506  00000-0  23819-3 0  9996,2 53432  53.2162 273.6413 0001257  88.1545 271.9591 15.08850362108337,6917.849,95.437,540.583,538.844,0.0
53432.0,STARLINK-4557,PAYLOAD,2024-07-19 04:29:44,15.0883877,0.0001337,53.2157,270.6693,73.6241,286.4898,0.00012914,1.768e-05,0.0,0 STARLINK-4557,1 53432U 22097AW  24201.18731618  .00001768  00000-0  12914-3 0  9993,2 53432  53.2157 270.6693 0001337  73.6241 286.4898 15.08838770107956,6917.884,95.438,540.674,538.824,0.0
53432.0,STARLINK-4557,PAYLOAD,2024-07-19 10:51:16,15.08838304,0.0001156,53.2157,269.4786,87.7352,272.3773,0.0001139,1.525e-05,0.0,0 STARLINK-4557,1 53432U 22097AW  24201.45227655  .00001525  00000-0  11390-3 0  9992,2 53432  53.2157 269.4786 0001156  87.7352 272.3773 15.08838304108470,6917.886,95.438,540.55,538.951,0.0
53432.0,STARLINK-4557,PAYLOAD,2024-07-20 10:42:03,15.08853985,0.0001239,53.2152,265.0161,96.5536,263.5597,0.00018513,2.661e-05,0.0,0 STARLINK-4557,1 53432U 22097AW  24202.44586808  .00002661  00000-0  18513-3 0  9996,2 53432  53.2152 265.0161 0001239  96.5536 263.5597 15.08853985108140,6917.838,95.437,540.56,538.846,0.0
53432.0,STARLINK-4557,PAYLOAD,2024-07-20 21:49:45,15.08849,0.0001039,53.2138,262.9352,89.3518,270.7593,0.00024778,3.659e-05,0.0,0 STARLINK-4557,1 53432U 22097AW  24202.90954928  .00003659  00000-0  24778-3 0  9997,2 53432  53.2138 262.9352 0001039  89.3518 270.7593 15.08849000108699,6917.853,95.437,540.437,538.999,0.0
53432.0,STARLINK-4557,PAYLOAD,2024-07-21 04:11:17,15.08844171,0.0001521,53.2172,261.7458,98.9944,261.122,0.00014168,1.968e-05,0.0,0 STARLINK-4557,1 53432U 22097AW  24203.17451271  .00001968  00000-0  14168-3 0  9993,2 53432  53.2172 261.7458 0001521  98.9944 261.1220 15.08844171108253,6917.868,95.437,540.785,538.68,0.0
53432.0,STARLINK-4557,PAYLOAD,2024-07-21 10:32:50,15.08846164,0.0001536,53.2168,260.557,97.4279,262.6888,0.00016254,2.3e-05,0.0,0 STARLINK-4557,1 53432U 22097AW  24203.43947105  .00002300  00000-0  16254-3 0  9997,2 53432  53.2168 260.5570 0001536  97.4279 262.6888 15.08846164108778,6917.862,95.437,540.789,538.664,0.0
53432.0,STARLINK-4557,PAYLOAD,2024-07-22 04:02:05,15.08839856,0.0001563,53.216,257.2857,90.3738,269.7433,-3.8324e-05,-8.98e-06,0.0,0 STARLINK-4557,1 53432U 22097AW  24204.16811442 -.00000898  00000-0 -38324-4 0  9997,2 53432  53.2160 257.2857 0001563  90.3738 269.7433 15.08839856108407,6917.881,95.438,540.827,538.665,0.0
53432.0,STARLINK-4557,PAYLOAD,2024-07-22 08:48:14,15.08841052,0.0001465,53.2166,256.392,97.9166,262.1993,-2.9781e-05,-7.62e-06,0.0,0 STARLINK-4557,1 53432U 22097AW  24204.36683622 -.00000762  00000-0 -29781-4 0  9993,2 53432  53.2166 256.3920 0001465  97.9166 262.1993 15.08841052108918,6917.877,95.437,540.756,538.729,0.0
53432.0,STARLINK-4557,PAYLOAD,2024-07-23 10:14:24,15.08845123,0.0001565,53.2167,251.6361,89.9666,270.1506,0.00012421,1.69e-05,0.0,0 STARLINK-4557,1 53432U 22097AW  24205.42667116  .00001690  00000-0  12421-3 0  9992,2 53432  53.2167 251.6361 0001565  89.9666 270.1506 15.08845123108599,6917.865,95.437,540.812,538.647,0.0
53432.0,STARLINK-4557,PAYLOAD,2024-07-24 10:05:12,15.08826885,0.0001586,53.2169,247.178,98.0168,262.1005,3.3354e-05,2.43e-06,0.0,0 STARLINK-4557,1 53432U 22097AW  24206.42028934  .00000243  00000-0  33354-4 0  9994,2 53432  53.2169 247.1780 0001586  98.0168 262.1005 15.08826885108743,6917.92,95.438,540.883,538.688,0.0
53432.0,STARLINK-4557,PAYLOAD,2024-07-25 06:45:12,15.08845284,0.000152,53.2165,243.3117,95.6817,264.4349,8.3311e-05,1.038e-05,0.0,0 STARLINK-4557,1 53432U 22097AW  24207.28139825  .00001038  00000-0  83311-4 0  9992,2 53432  53.2165 243.3117 0001520  95.6817 264.4349 15.08845284109351,6917.864,95.437,540.781,538.678,0.0
